ONEWEB-0451             
1 51643U 22012X   24010.98293096 -.00000012  00000+0 -65000-4 0  9998
2 51643  87.9203 182.4672 0001436 101.8032 258.3260 13.17647892 97997
ONEWEB-0452             
1 51644U 22012Y   24011.51290040  .00000059  00000+0  11766-3 0  9993
2 51644  87.9211 182.3927 0001140 106.0548 254.0710 13.17648568 98074
ONEWEB-0455             
1 51645U 22012Z   24010.44402240  .00000457  00000+0  19591-3 0  9998
2 51645  87.5364 162.5847 0018437 136.9209 223.3429 14.22689876 99738
ONEWEB-0456             
1 51646U 22012AA  24011.07620976  .00000626  00000+0  17559-2 0  9996
2 51646  87.8891 212.6565 0001852  88.6296 271.5043 13.10373526 94328
ONEWEB-0457             
1 51647U 22012AB  24010.59528347 -.00000264  00000+0 -79138-3 0  9994
2 51647  87.8902 212.7604 0001122  81.8870 278.2385 13.10373051 94270
ONEWEB-0458             
1 51648U 22012AC  24010.61641778  .00000655  00000+0  18401-2 0  9999
2 51648  87.8901 212.7697 0001363  97.7059 262.4223 13.10376374 94237
ONEWEB-0461             
1 51649U 22012AD  24010.47194765  .00000069  00000+0  14400-3 0  9998
2 51649  87.9207 182.5739 0001400  87.4768 272.6523 13.17652320 96855
ONEWEB-0463             
1 51650U 22012AE  24010.98610589 -.00000032  00000+0 -11532-3 0  9998
2 51650  87.9211 182.5120 0001381  91.0173 269.1116 13.17649565 98000
ONEWEB-0464             
1 51651U 22012AF  24010.61318822  .00000541  00000+0  15128-2 0  9991
2 51651  87.8901 212.7590 0001862  96.0210 264.1130 13.10376973 94251
ONEWEB-0468             
1 51652U 22012AG  24010.08518546  .00000691  00000+0  19427-2 0  9990
2 51652  87.8900 212.8568 0001535  94.7787 265.3516 13.10376926 92862
ONEWEB-0473             
1 51653U 22012AH  24011.52134276 -.00000075  00000+0 -25234-3 0  9997
2 51653  87.8904 212.5758 0001495  93.5972 266.5326 13.10378082 94356
ONEWEB-0474             
1 51654U 22012AJ  24011.51321578 -.00000467  00000+0 -13732-2 0  9994
2 51654  87.8893 212.5890 0001561  99.6054 260.5250 13.10376283 94332
ONEWEB-0475             
1 51655U 22012AK  24010.99719073  .00000325  00000+0  80269-3 0  9998
2 51655  87.9212 182.4888 0001571 112.2334 247.8965 13.17649784 98011
ONEWEB-0490             
1 54113U 22138A   24010.78920647 -.00000213  00000+0 -56529-3 0  9997
2 54113  87.9204 121.8175 0001840 108.3825 251.7508 13.19725281 60521
ONEWEB-0492             
1 54114U 22138B   24010.35958002  .00000464  00000+0  11270-2 0  9996
2 54114  87.9211 121.8975 0001972 112.5651 247.5691 13.19724246 59601
ONEWEB-0495             
1 54115U 22138C   24011.32308743  .00000162  00000+0  37274-3 0  9994
2 54115  87.9211 121.7174 0002024 117.8417 242.2921 13.19726463 60589
ONEWEB-0497             
1 54116U 22138D   24010.35010323  .00000069  00000+0  13910-3 0  9998
2 54116  87.9205 121.9054 0001831 108.9950 251.1381 13.19724590 59575
ONEWEB-0499             
1 54117U 22138E   24010.78762898  .00000030  00000+0  42599-4 0  9991
2 54117  87.9211 121.8128 0001379 125.1532 234.9730 13.19726046 60519
ONEWEB-0500             
1 54118U 22138F   24011.32152267  .00000117  00000+0  25964-3 0  9998
2 54118  87.9208 121.7076 0001823 105.4721 254.6614 13.19726385 60596
ONEWEB-0501             
1 54119U 22138G   24010.36589798  .00000033  00000+0  50850-4 0  9995
2 54119  87.9206 121.8980 0002090 121.5945 238.5392 13.19725939 59578
ONEWEB-0502             
1 54120U 22138H   24011.33730092  .00000092  00000+0  19769-3 0  9998
2 54120  87.9204 121.6963 0001869 117.8201 242.3121 13.19724843 60593
ONEWEB-0503             
1 54121U 22138J   24010.79552393  .00000031  00000+0  45462-4 0  9997
2 54121  87.9204 121.8116 0001249 104.4367 255.6904 13.19726233 60516
ONEWEB-0504             
1 54122U 22138K   24010.70708168  .00000020  00000+0  18349-4 0  9994
2 54122  87.9208 121.8316 0001621 120.5149 239.6144 13.19725327 60515
ONEWEB-0505             
1 54123U 22138L   24010.32482705 -.00000043  00000+0 -13880-3 0  9990
2 54123  87.9202 121.9040 0002069 126.1876 233.9449 13.19725943 59574
ONEWEB-0506             
1 54124U 22138M   24010.75445313  .00000009  00000+0 -96513-5 0  9999
2 54124  87.9204 121.8163 0001850 115.5181 244.6143 13.19728971 60497
ONEWEB-0507             
1 54125U 22138N   24010.77499286  .00000011  00000+0 -45784-5 0  9997
2 54125  87.9213 121.8199 0001915 113.1070 247.0264 13.19725133 60544
ONEWEB-0508             
1 54126U 22138P   24011.30255044  .00000088  00000+0  18661-3 0  9995
2 54126  87.9211 121.7129 0002109 119.7987 240.3355 13.19726154 60596
ONEWEB-0509             
1 54127U 22138Q   24010.36747437  .00000043  00000+0  74501-4 0  9990
2 54127  87.9203 121.8963 0001728 112.8662 247.2653 13.19727253 59579
ONEWEB-0510             
1 54128U 22138R   24011.26189800  .00000053  00000+0  99140-4 0  9992
2 54128  87.9231  91.1757 0002235 101.0061 259.1323 13.20770299 62972
ONEWEB-0511             
1 54129U 22138S   24010.74339918  .00000030  00000+0  43866-4 0  9991
2 54129  87.9201 121.8233 0001284 117.1251 243.0013 13.19725877 60529
ONEWEB-0512             
1 54130U 22138T   24011.34203412 -.00000030  00000+0 -10652-3 0  9997
2 54130  87.9213 121.7083 0001898 121.1164 239.0155 13.19726854 60578
ONEWEB-0513             
1 54131U 22138U   24010.78210648  .00000059  00000+0  11496-3 0  9990
2 54131  87.9210 121.8174 0001785 131.7557 228.3729 13.19723632 60384
ONEWEB-0514             
1 54132U 22138V   24011.35783685  .00000043  00000+0  75990-4 0  9994
2 54132  87.9204 121.7051 0001599 106.1317 253.9992 13.19725152 60592
ONEWEB-0515             
1 54133U 22138W   24011.17351891  .00000154  00000+0  34704-3 0  9995
2 54133  87.9188  91.1767 0002398  75.5543 284.5856 13.20769804 62951
ONEWEB-0516             
1 54134U 22138X   24010.34694385  .00000105  00000+0  22931-3 0  9997
2 54134  87.9213 121.9059 0001792 107.7242 252.4087 13.19726126 59592
ONEWEB-0517             
1 54135U 22138Y   24010.78131040  .00000043  00000+0  74812-4 0  9997
2 54135  87.9205 121.8158 0001700 118.9629 241.1674 13.19726142 60525
ONEWEB-0518             
1 54136U 22138Z   24011.33097875 -.00000098  00000+0 -27683-3 0  9992
2 54136  87.9211 121.7099 0001519 110.5552 249.5743 13.19725572 60599
ONEWEB-0519             
1 54137U 22138AA  24011.35625344  .00000066  00000+0  13351-3 0  9993
2 54137  87.9204 121.6987 0001709 124.1216 236.0079 13.19724811 60606
ONEWEB-0520             
1 54138U 22138AB  24010.78446460  .00000056  00000+0  10631-3 0  9997
2 54138  87.9206 121.8148 0002040 119.6872 240.4464 13.19727095 60510
ONEWEB-0521             
1 54139U 22138AC  24011.34835742  .00000060  00000+0  11794-3 0  9992
2 54139  87.9203 121.6980 0001327 103.8471 256.2810 13.19726350 60565
ONEWEB-0522             
1 54140U 22138AD  24010.79710753  .00000033  00000+0  50193-4 0  9993
2 54140  87.9204 121.8096 0001830 107.4904 252.6429 13.19724538 60504
ONEWEB-0523             
1 54141U 22138AE  24010.78210951  .00000132  00000+0  29218-3 0  9991
2 54141  87.9190  91.2818 0001736  69.0058 291.1261 13.20774322 62905
ONEWEB-0524             
1 54142U 22138AF  24011.22560091  .00000129  00000+0  28439-3 0  9995
2 54142  87.9190  91.1978 0002745  84.1526 275.9920 13.20771436 62962
ONEWEB-0525             
1 54143U 22138AG  24011.34679007  .00000498  00000+0  12110-2 0  9994
2 54143  87.9202 121.7050 0001752 119.1979 240.9329 13.19720963 60595
ONEWEB-0526             
1 54144U 22138AH  24011.37996299  .00000185  00000+0  42896-3 0  9991
2 54144  87.9204 121.6962 0001838 103.7607 256.3731 13.19728268 60573
ONEWEB-0529             
1 54145U 22138AJ  24010.77658390  .00000003  00000+0 -25554-4 0  9995
2 54145  87.9212 121.8192 0002040 115.8875 244.2468 13.19725964 60514
ONEWEB-0531             
1 54146U 22138AK  24011.28716401  .00000083  00000+0  17269-3 0  9991
2 54146  87.9190  91.1749 0002203  72.0608 288.0765 13.20771805 62971
ONEWEB-0535             
1 54147U 22138AL  24010.80974395  .00000000  00000+0 -33526-4 0  9992
2 54147  87.9203 121.8087 0001485  94.1324 265.9978 13.19724461 60538
ONEWEB-0536             
1 54148U 22138AM  24010.28968168  .00000045  00000+0  79893-4 0  9991
2 54148  87.9191  91.4243 0001567  65.5178 294.6118 13.20769589 61966
GSLV R/B                
1 54149U 22138AN  24011.24157987  .00002969  00000+0  30589-3 0  9993
2 54149  87.3790  69.6395 0026461 120.5161 239.8684 14.89651812 66267
ONEWEB-0527             
1 54642U 22166A   24010.19272518 -.00000008  00000+0 -51219-4 0  9991
2 54642  87.9204  60.9631 0001966  96.3870 263.7487 13.21826767 54091
ONEWEB-0528             
1 54643U 22166B   24011.18308864  .00000085  00000+0  17376-3 0  9994
2 54643  87.9224  60.7453 0001925 102.1207 258.0142 13.21827924 54685
ONEWEB-0539             
1 54644U 22166C   24010.15961739  .00000092  00000+0  19178-3 0  9997
2 54644  87.9227  60.9498 0001676 103.0101 257.1220 13.21824611 54098
ONEWEB-0540             
1 54645U 22166D   24010.68396859  .00000073  00000+0  14641-3 0  9990
2 54645  87.9227  60.8728 0001677 106.1248 254.0071 13.21823630 54620
ONEWEB-0542             
1 54646U 22166E   24010.69895345  .00000127  00000+0  27593-3 0  9996
2 54646  87.9225  60.8427 0001283  98.8764 261.2516 13.21825756 54623
ONEWEB-0545             
1 54647U 22166F   24011.49848957 -.00000008  00000+0 -49878-4 0  9994
2 54647  87.9215  60.7201 0001501 114.6247 245.5043 13.21827023 54706
ONEWEB-0580             
1 54648U 22166G   24010.18484066  .00000047  00000+0  81958-4 0  9993
2 54648  87.9226  60.9386 0001217  99.0329 261.0943 13.21826958 54568
ONEWEB-0582             
1 54649U 22166H   24010.68160105  .00000048  00000+0  85418-4 0  9990
2 54649  87.9226  60.8821 0001836 110.1741 249.9590 13.21826751 54612
ONEWEB-0583             
1 54650U 22166J   24010.16277073  .00000106  00000+0  22445-3 0  9993
2 54650  87.9216  60.9880 0002294  99.3871 260.7522 13.21825197 54080
